STARLINK-36552          
1 67503U 26012L   26029.50003471 -.01583868  73372-3 -36294-2 0  9993
2 67503  42.9963 181.8881 0001376 275.6149 245.4171 15.96525038  2765
STARLINK-36512          
1 67504U 26012M   26029.50003471 -.01591242  74096-3 -36222-2 0  9994
2 67504  42.9961 181.8797 0001453 272.8509 251.5293 15.96646287  2768
STARLINK-36545          
1 67505U 26012N   26029.50003471 -.01589792  74020-3 -36062-2 0  9991
2 67505  42.9961 181.8744 0001301 273.6634 252.7052 15.96710502  2769
STARLINK-36553          
1 67506U 26012P   26029.50003471 -.01555748  71183-3 -35131-2 0  9999
2 67506  42.9964 181.8681 0001369 266.5700 262.5221 15.96786800  2763
STARLINK-36521          
1 67507U 26012Q   26029.50003471 -.01557742  71441-3 -34943-2 0  9993
2 67507  42.9962 181.8592 0001429 267.0848 265.3740 15.96907828  2761
STARLINK-36526          
1 67508U 26012R   26029.50003471 -.01557123  71481-3 -34688-2 0  9997
2 67508  42.9962 181.8505 0001403 270.9620 265.0037 15.97033110  2760
STARLINK-36541          
1 67509U 26012S   26029.50003471 -.01561486  71919-3 -34608-2 0  9993
2 67509  42.9962 181.8430 0001474 269.9870 268.6857 15.97125709  2700
STARLINK-36549          
1 67510U 26012T   26028.91668981 -.01309342  53800-3 -24271-2 0  9997
2 67510  42.9959 185.3777 0001639 281.7413 186.4543 16.00252256  2611
STARLINK-36540          
1 67511U 26012U   26029.50003471 -.01544892  70565-3 -34116-2 0  9998
2 67511  42.9962 181.8384 0001284 269.8978 270.8371 15.97189504  2763
STARLINK-36538          
1 67512U 26012V   26029.50003471 -.01533617  69700-3 -33658-2 0  9991
2 67512  42.9966 181.8297 0001446 263.9800 280.0232 15.97299487  2761
STARLINK-36531          
1 67513U 26012W   26029.50003471 -.01540291  70332-3 -33621-2 0  9991
2 67513  42.9968 181.8234 0001419 269.0604 277.6244 15.97398650  2705
STARLINK-36530          
1 67514U 26012X   26029.50003471 -.01516092  68394-3 -32876-2 0  9990
2 67514  42.9965 181.8141 0001437 265.1647 285.0388 15.97512995  2706
