CCSDS_OMM_VERS = 2.0
CREATION_DATE  = 
ORIGINATOR     = 

OBJECT_NAME    = STARLINK-36552
OBJECT_ID      = 2026-012L
CENTER_NAME    = EARTH
REF_FRAME      = TEME
TIME_SYSTEM    = UTC
MEAN_ELEMENT_THEORY = SGP/SGP4

EPOCH          = 2026-01-29T12:00:02.998944
MEAN_MOTION    = 15.96525038
ECCENTRICITY   = .0001376
INCLINATION    = 42.9963
RA_OF_ASC_NODE = 181.8881
ARG_OF_PERICENTER = 275.6149
MEAN_ANOMALY   = 245.4171

EPHEMERIS_TYPE = 0
CLASSIFICATION_TYPE = U
NORAD_CAT_ID   = 67503
ELEMENT_SET_NO = 999
REV_AT_EPOCH   = 276
BSTAR          = -.36294E-2
MEAN_MOTION_DOT = -.1583868E-1
MEAN_MOTION_DDOT = .73372E-3

CCSDS_OMM_VERS = 2.0
CREATION_DATE  = 
ORIGINATOR     = 

OBJECT_NAME    = STARLINK-36512
OBJECT_ID      = 2026-012M
CENTER_NAME    = EARTH
REF_FRAME      = TEME
TIME_SYSTEM    = UTC
MEAN_ELEMENT_THEORY = SGP/SGP4

EPOCH          = 2026-01-29T12:00:02.998944
MEAN_MOTION    = 15.96646287
ECCENTRICITY   = .0001453
INCLINATION    = 42.9961
RA_OF_ASC_NODE = 181.8797
ARG_OF_PERICENTER = 272.8509
MEAN_ANOMALY   = 251.5293

EPHEMERIS_TYPE = 0
CLASSIFICATION_TYPE = U
NORAD_CAT_ID   = 67504
ELEMENT_SET_NO = 999
REV_AT_EPOCH   = 276
BSTAR          = -.36222E-2
MEAN_MOTION_DOT = -.1591242E-1
MEAN_MOTION_DDOT = .74096E-3

CCSDS_OMM_VERS = 2.0
CREATION_DATE  = 
ORIGINATOR     = 

OBJECT_NAME    = STARLINK-36545
OBJECT_ID      = 2026-012N
CENTER_NAME    = EARTH
REF_FRAME      = TEME
TIME_SYSTEM    = UTC
MEAN_ELEMENT_THEORY = SGP/SGP4

EPOCH          = 2026-01-29T12:00:02.998944
MEAN_MOTION    = 15.96710502
ECCENTRICITY   = .0001301
INCLINATION    = 42.9961
RA_OF_ASC_NODE = 181.8744
ARG_OF_PERICENTER = 273.6634
MEAN_ANOMALY   = 252.7052

EPHEMERIS_TYPE = 0
CLASSIFICATION_TYPE = U
NORAD_CAT_ID   = 67505
ELEMENT_SET_NO = 999
REV_AT_EPOCH   = 276
BSTAR          = -.36062E-2
MEAN_MOTION_DOT = -.1589792E-1
MEAN_MOTION_DDOT = .7402E-3

CCSDS_OMM_VERS = 2.0
CREATION_DATE  = 
ORIGINATOR     = 

OBJECT_NAME    = STARLINK-36553
OBJECT_ID      = 2026-012P
CENTER_NAME    = EARTH
REF_FRAME      = TEME
TIME_SYSTEM    = UTC
MEAN_ELEMENT_THEORY = SGP/SGP4

EPOCH          = 2026-01-29T12:00:02.998944
MEAN_MOTION    = 15.96786800
ECCENTRICITY   = .0001369
INCLINATION    = 42.9964
RA_OF_ASC_NODE = 181.8681
ARG_OF_PERICENTER = 266.5700
MEAN_ANOMALY   = 262.5221

EPHEMERIS_TYPE = 0
CLASSIFICATION_TYPE = U
NORAD_CAT_ID   = 67506
ELEMENT_SET_NO = 999
REV_AT_EPOCH   = 276
BSTAR          = -.35131E-2
MEAN_MOTION_DOT = -.1555748E-1
MEAN_MOTION_DDOT = .71183E-3

CCSDS_OMM_VERS = 2.0
CREATION_DATE  = 
ORIGINATOR     = 

OBJECT_NAME    = STARLINK-36521
OBJECT_ID      = 2026-012Q
CENTER_NAME    = EARTH
REF_FRAME      = TEME
TIME_SYSTEM    = UTC
MEAN_ELEMENT_THEORY = SGP/SGP4

EPOCH          = 2026-01-29T12:00:02.998944
MEAN_MOTION    = 15.96907828
ECCENTRICITY   = .0001429
INCLINATION    = 42.9962
RA_OF_ASC_NODE = 181.8592
ARG_OF_PERICENTER = 267.0848
MEAN_ANOMALY   = 265.3740

EPHEMERIS_TYPE = 0
CLASSIFICATION_TYPE = U
NORAD_CAT_ID   = 67507
ELEMENT_SET_NO = 999
REV_AT_EPOCH   = 276
BSTAR          = -.34943E-2
MEAN_MOTION_DOT = -.1557742E-1
MEAN_MOTION_DDOT = .71441E-3

CCSDS_OMM_VERS = 2.0
CREATION_DATE  = 
ORIGINATOR     = 

OBJECT_NAME    = STARLINK-36526
OBJECT_ID      = 2026-012R
CENTER_NAME    = EARTH
REF_FRAME      = TEME
TIME_SYSTEM    = UTC
MEAN_ELEMENT_THEORY = SGP/SGP4

EPOCH          = 2026-01-29T12:00:02.998944
MEAN_MOTION    = 15.97033110
ECCENTRICITY   = .0001403
INCLINATION    = 42.9962
RA_OF_ASC_NODE = 181.8505
ARG_OF_PERICENTER = 270.9620
MEAN_ANOMALY   = 265.0037

EPHEMERIS_TYPE = 0
CLASSIFICATION_TYPE = U
NORAD_CAT_ID   = 67508
ELEMENT_SET_NO = 999
REV_AT_EPOCH   = 276
BSTAR          = -.34688E-2
MEAN_MOTION_DOT = -.1557123E-1
MEAN_MOTION_DDOT = .71481E-3

CCSDS_OMM_VERS = 2.0
CREATION_DATE  = 
ORIGINATOR     = 

OBJECT_NAME    = STARLINK-36541
OBJECT_ID      = 2026-012S
CENTER_NAME    = EARTH
REF_FRAME      = TEME
TIME_SYSTEM    = UTC
MEAN_ELEMENT_THEORY = SGP/SGP4

EPOCH          = 2026-01-29T12:00:02.998944
MEAN_MOTION    = 15.97125709
ECCENTRICITY   = .0001474
INCLINATION    = 42.9962
RA_OF_ASC_NODE = 181.8430
ARG_OF_PERICENTER = 269.9870
MEAN_ANOMALY   = 268.6857

EPHEMERIS_TYPE = 0
CLASSIFICATION_TYPE = U
NORAD_CAT_ID   = 67509
ELEMENT_SET_NO = 999
REV_AT_EPOCH   = 270
BSTAR          = -.34608E-2
MEAN_MOTION_DOT = -.1561486E-1
MEAN_MOTION_DDOT = .71919E-3

CCSDS_OMM_VERS = 2.0
CREATION_DATE  = 
ORIGINATOR     = 

OBJECT_NAME    = STARLINK-36549
OBJECT_ID      = 2026-012T
CENTER_NAME    = EARTH
REF_FRAME      = TEME
TIME_SYSTEM    = UTC
MEAN_ELEMENT_THEORY = SGP/SGP4

EPOCH          = 2026-01-28T22:00:01.999584
MEAN_MOTION    = 16.00252256
ECCENTRICITY   = .00016395
INCLINATION    = 42.9959
RA_OF_ASC_NODE = 185.3777
ARG_OF_PERICENTER = 281.7413
MEAN_ANOMALY   = 186.4543

EPHEMERIS_TYPE = 0
CLASSIFICATION_TYPE = U
NORAD_CAT_ID   = 67510
ELEMENT_SET_NO = 999
REV_AT_EPOCH   = 261
BSTAR          = -.24271306E-2
MEAN_MOTION_DOT = -.1309342E-1
MEAN_MOTION_DDOT = .53799539E-3

CCSDS_OMM_VERS = 2.0
CREATION_DATE  = 
ORIGINATOR     = 

OBJECT_NAME    = STARLINK-36540
OBJECT_ID      = 2026-012U
CENTER_NAME    = EARTH
REF_FRAME      = TEME
TIME_SYSTEM    = UTC
MEAN_ELEMENT_THEORY = SGP/SGP4

EPOCH          = 2026-01-29T12:00:02.998944
MEAN_MOTION    = 15.97189504
ECCENTRICITY   = .0001284
INCLINATION    = 42.9962
RA_OF_ASC_NODE = 181.8384
ARG_OF_PERICENTER = 269.8978
MEAN_ANOMALY   = 270.8371

EPHEMERIS_TYPE = 0
CLASSIFICATION_TYPE = U
NORAD_CAT_ID   = 67511
ELEMENT_SET_NO = 999
REV_AT_EPOCH   = 276
BSTAR          = -.34116E-2
MEAN_MOTION_DOT = -.1544892E-1
MEAN_MOTION_DDOT = .70565E-3

CCSDS_OMM_VERS = 2.0
CREATION_DATE  = 
ORIGINATOR     = 

OBJECT_NAME    = STARLINK-36538
OBJECT_ID      = 2026-012V
CENTER_NAME    = EARTH
REF_FRAME      = TEME
TIME_SYSTEM    = UTC
MEAN_ELEMENT_THEORY = SGP/SGP4

EPOCH          = 2026-01-29T12:00:02.998944
MEAN_MOTION    = 15.97299487
ECCENTRICITY   = .0001446
INCLINATION    = 42.9966
RA_OF_ASC_NODE = 181.8297
ARG_OF_PERICENTER = 263.9800
MEAN_ANOMALY   = 280.0232

EPHEMERIS_TYPE = 0
CLASSIFICATION_TYPE = U
NORAD_CAT_ID   = 67512
ELEMENT_SET_NO = 999
REV_AT_EPOCH   = 276
BSTAR          = -.33658E-2
MEAN_MOTION_DOT = -.1533617E-1
MEAN_MOTION_DDOT = .697E-3

CCSDS_OMM_VERS = 2.0
CREATION_DATE  = 
ORIGINATOR     = 

OBJECT_NAME    = STARLINK-36531
OBJECT_ID      = 2026-012W
CENTER_NAME    = EARTH
REF_FRAME      = TEME
TIME_SYSTEM    = UTC
MEAN_ELEMENT_THEORY = SGP/SGP4

EPOCH          = 2026-01-29T12:00:02.998944
MEAN_MOTION    = 15.97398650
ECCENTRICITY   = .0001419
INCLINATION    = 42.9968
RA_OF_ASC_NODE = 181.8234
ARG_OF_PERICENTER = 269.0604
MEAN_ANOMALY   = 277.6244

EPHEMERIS_TYPE = 0
CLASSIFICATION_TYPE = U
NORAD_CAT_ID   = 67513
ELEMENT_SET_NO = 999
REV_AT_EPOCH   = 270
BSTAR          = -.33621E-2
MEAN_MOTION_DOT = -.1540291E-1
MEAN_MOTION_DDOT = .70332E-3

CCSDS_OMM_VERS = 2.0
CREATION_DATE  = 
ORIGINATOR     = 

OBJECT_NAME    = STARLINK-36530
OBJECT_ID      = 2026-012X
CENTER_NAME    = EARTH
REF_FRAME      = TEME
TIME_SYSTEM    = UTC
MEAN_ELEMENT_THEORY = SGP/SGP4

EPOCH          = 2026-01-29T12:00:02.998944
MEAN_MOTION    = 15.97512995
ECCENTRICITY   = .0001437
INCLINATION    = 42.9965
RA_OF_ASC_NODE = 181.8141
ARG_OF_PERICENTER = 265.1647
MEAN_ANOMALY   = 285.0388

EPHEMERIS_TYPE = 0
CLASSIFICATION_TYPE = U
NORAD_CAT_ID   = 67514
ELEMENT_SET_NO = 999
REV_AT_EPOCH   = 270
BSTAR          = -.32876E-2
MEAN_MOTION_DOT = -.1516092E-1
MEAN_MOTION_DDOT = .68394E-3

